{
  "type": "FeatureCollection",
  "features": [
    {
      "type": "Feature",
      "properties": {
        "norad_id": 66870,
        "name": "STARLINK-36114",
        "group": "last-30-days",
        "lat": 19.16919635327901,
        "lon": 70.0995109592281,
        "alt_km": 397.81342703267,
        "timestamp": "2025-12-24T22:42:20.746776+00:00",
        "meta_object_name": "STARLINK-36114",
        "meta_object_id": "2025-281Y",
        "meta_epoch": "2025-12-24T06:00:02.000160",
        "meta_mean_motion": 15.58605497,
        "meta_eccentricity": 0.00015198,
        "meta_inclination": 43.0003,
        "meta_ra_of_asc_node": 52.3071,
        "meta_arg_of_pericenter": 282.2513,
        "meta_mean_anomaly": 160.2249,
        "meta_ephemeris_type": 0,
        "meta_classification_type": "U",
        "meta_norad_cat_id": 66870,
        "meta_element_set_no": 999,
        "meta_rev_at_epoch": 314,
        "meta_bstar": -0.029220408,
        "meta_mean_motion_dot": -0.02016904,
        "meta_mean_motion_ddot": 0,
        "tle_line1": "1 66870U 25281Y   25358.25002315 -.02016904  00000+0 -29220-1 0  9995",
        "tle_line2": "2 66870  43.0003  52.3071 0001519 282.2513 160.2249 15.58605497  3148"
      },
      "geometry": {
        "type": "Point",
        "coordinates": [
          70.0995109592281,
          19.16919635327901
        ]
      }
    },
    {
      "type": "Feature",
      "properties": {
        "norad_id": 66871,
        "name": "STARLINK-36095",
        "group": "last-30-days",
        "lat": 20.36210975280997,
        "lon": 71.66072504840916,
        "alt_km": 397.61515068522385,
        "timestamp": "2025-12-24T22:42:20.746787+00:00",
        "meta_object_name": "STARLINK-36095",
        "meta_object_id": "2025-281Z",
        "meta_epoch": "2025-12-24T06:00:02.000160",
        "meta_mean_motion": 15.58615978,
        "meta_eccentricity": 0.00012345,
        "meta_inclination": 43.0001,
        "meta_ra_of_asc_node": 52.3013,
        "meta_arg_of_pericenter": 284.8599,
        "meta_mean_anomaly": 159.5299,
        "meta_ephemeris_type": 0,
        "meta_classification_type": "U",
        "meta_norad_cat_id": 66871,
        "meta_element_set_no": 999,
        "meta_rev_at_epoch": 327,
        "meta_bstar": -0.029534773,
        "meta_mean_motion_dot": -0.02075577,
        "meta_mean_motion_ddot": 0,
        "tle_line1": "1 66871U 25281Z   25358.25002315 -.02075577  00000+0 -29535-1 0  9996",
        "tle_line2": "2 66871  43.0001  52.3013 0001234 284.8599 159.5299 15.58615978  3274"
      },
      "geometry": {
        "type": "Point",
        "coordinates": [
          71.66072504840916,
          20.36210975280997
        ]
      }
    },
    {
      "type": "Feature",
      "properties": {
        "norad_id": 66872,
        "name": "STARLINK-36082",
        "group": "last-30-days",
        "lat": 21.566762782411526,
        "lon": 73.282879739039,
        "alt_km": 397.42841889066403,
        "timestamp": "2025-12-24T22:42:20.746797+00:00",
        "meta_object_name": "STARLINK-36082",
        "meta_object_id": "2025-281AA",
        "meta_epoch": "2025-12-24T06:00:02.000160",
        "meta_mean_motion": 15.58604632,
        "meta_eccentricity": 0.00014105,
        "meta_inclination": 43.0001,
        "meta_ra_of_asc_node": 52.2969,
        "meta_arg_of_pericenter": 284.7786,
        "meta_mean_anomaly": 161.5319,
        "meta_ephemeris_type": 0,
        "meta_classification_type": "U",
        "meta_norad_cat_id": 66872,
        "meta_element_set_no": 999,
        "meta_rev_at_epoch": 314,
        "meta_bstar": -0.02921056,
        "meta_mean_motion_dot": -0.02016171,
        "meta_mean_motion_ddot": 0,
        "tle_line1": "1 66872U 25281AA  25358.25002315 -.02016171  00000+0 -29211-1 0  9993",
        "tle_line2": "2 66872  43.0001  52.2969 0001410 284.7786 161.5319 15.58604632  3144"
      },
      "geometry": {
        "type": "Point",
        "coordinates": [
          73.282879739039,
          21.566762782411526
        ]
      }
    },
    {
      "type": "Feature",
      "properties": {
        "norad_id": 66873,
        "name": "STARLINK-36128",
        "group": "last-30-days",
        "lat": 25.040631111142805,
        "lon": 78.25834539594706,
        "alt_km": 397.1650064998157,
        "timestamp": "2025-12-24T22:42:20.746807+00:00",
        "meta_object_name": "STARLINK-36128",
        "meta_object_id": "2025-281AB",
        "meta_epoch": "2025-12-24T06:00:02.000160",
        "meta_mean_motion": 15.58611279,
        "meta_eccentricity": 0.00012355,
        "meta_inclination": 43.0002,
        "meta_ra_of_asc_node": 52.2817,
        "meta_arg_of_pericenter": 277.2045,
        "meta_mean_anomaly": 174.8517,
        "meta_ephemeris_type": 0,
        "meta_classification_type": "U",
        "meta_norad_cat_id": 66873,
        "meta_element_set_no": 999,
        "meta_rev_at_epoch": 327,
        "meta_bstar": -0.029311326,
        "meta_mean_motion_dot": -0.02061227,
        "meta_mean_motion_ddot": 0,
        "tle_line1": "1 66873U 25281AB  25358.25002315 -.02061227  00000+0 -29311-1 0  9997",
        "tle_line2": "2 66873  43.0002  52.2817 0001235 277.2045 174.8517 15.58611279  3274"
      },
      "geometry": {
        "type": "Point",
        "coordinates": [
          78.25834539594706,
          25.040631111142805
        ]
      }
    },
    {
      "type": "Feature",
      "properties": {
        "norad_id": 66874,
        "name": "STARLINK-36129",
        "group": "last-30-days",
        "lat": 22.730218221443966,
        "lon": 74.89556907219107,
        "alt_km": 397.3635924629252,
        "timestamp": "2025-12-24T22:42:20.746819+00:00",
        "meta_object_name": "STARLINK-36129",
        "meta_object_id": "2025-281AC",
        "meta_epoch": "2025-12-24T06:00:02.000160",
        "meta_mean_motion": 15.58615172,
        "meta_eccentricity": 0.00010217,
        "meta_inclination": 43.0001,
        "meta_ra_of_asc_node": 52.2914,
        "meta_arg_of_pericenter": 281.1216,
        "meta_mean_anomaly": 167.1029,
        "meta_ephemeris_type": 0,
        "meta_classification_type": "U",
        "meta_norad_cat_id": 66874,
        "meta_element_set_no": 999,
        "meta_rev_at_epoch": 327,
        "meta_bstar": -0.029512294,
        "meta_mean_motion_dot": -0.02073974,
        "meta_mean_motion_ddot": 0,
        "tle_line1": "1 66874U 25281AC  25358.25002315 -.02073974  00000+0 -29512-1 0  9993",
        "tle_line2": "2 66874  43.0001  52.2914 0001021 281.1216 167.1029 15.58615172  3278"
      },
      "geometry": {
        "type": "Point",
        "coordinates": [
          74.89556907219107,
          22.730218221443966
        ]
      }
    },
    {
      "type": "Feature",
      "properties": {
        "norad_id": 66875,
        "name": "STARLINK-36053",
        "group": "last-30-days",
        "lat": 26.15429219035939,
        "lon": 79.96563428534705,
        "alt_km": 396.7759949905385,
        "timestamp": "2025-12-24T22:42:20.746829+00:00",
        "meta_object_name": "STARLINK-36053",
        "meta_object_id": "2025-281AD",
        "meta_epoch": "2025-12-24T06:00:02.000160",
        "meta_mean_motion": 15.5861303,
        "meta_eccentricity": 0.00011033,
        "meta_inclination": 43,
        "meta_ra_of_asc_node": 52.2753,
        "meta_arg_of_pericenter": 287.2709,
        "meta_mean_anomaly": 166.7064,
        "meta_ephemeris_type": 0,
        "meta_classification_type": "U",
        "meta_norad_cat_id": 66875,
        "meta_element_set_no": 999,
        "meta_rev_at_epoch": 327,
        "meta_bstar": -0.029485744,
        "meta_mean_motion_dot": -0.0207221,
        "meta_mean_motion_ddot": 0,
        "tle_line1": "1 66875U 25281AD  25358.25002315 -.02072210  00000+0 -29486-1 0  9996",
        "tle_line2": "2 66875  43.0000  52.2753 0001103 287.2709 166.7064 15.58613030  3279"
      },
      "geometry": {
        "type": "Point",
        "coordinates": [
          79.96563428534705,
          26.15429219035939
        ]
      }
    },
    {
      "type": "Feature",
      "properties": {
        "norad_id": 66876,
        "name": "STARLINK-35702",
        "group": "last-30-days",
        "lat": 23.90410238357534,
        "lon": 76.57610414692654,
        "alt_km": 397.16625485287204,
        "timestamp": "2025-12-24T22:42:20.746839+00:00",
        "meta_object_name": "STARLINK-35702",
        "meta_object_id": "2025-281AE",
        "meta_epoch": "2025-12-24T06:00:02.000160",
        "meta_mean_motion": 15.58609749,
        "meta_eccentricity": 0.0001445,
        "meta_inclination": 43.0003,
        "meta_ra_of_asc_node": 52.2871,
        "meta_arg_of_pericenter": 283.8717,
        "meta_mean_anomaly": 166.2658,
        "meta_ephemeris_type": 0,
        "meta_classification_type": "U",
        "meta_norad_cat_id": 66876,
        "meta_element_set_no": 999,
        "meta_rev_at_epoch": 327,
        "meta_bstar": -0.029234694,
        "meta_mean_motion_dot": -0.02017997,
        "meta_mean_motion_ddot": 0,
        "tle_line1": "1 66876U 25281AE  25358.25002315 -.02017997  00000+0 -29235-1 0  9990",
        "tle_line2": "2 66876  43.0003  52.2871 0001445 283.8717 166.2658 15.58609749  3270"
      },
      "geometry": {
        "type": "Point",
        "coordinates": [
          76.57610414692654,
          23.90410238357534
        ]
      }
    }
  ]
}